[{"OBJECT_NAME":"STARLINK-36495","OBJECT_ID":"2026-002G","EPOCH":"2026-03-09T23:13:33.742560","MEAN_MOTION":15.27629395,"ECCENTRICITY":4.737e-5,"INCLINATION":43.0015,"RA_OF_ASC_NODE":323.5054,"ARG_OF_PERICENTER":227.4963,"MEAN_ANOMALY":132.5849,"EPHEMERIS_TYPE":0,"CLASSIFICATION_TYPE":"U","NORAD_CAT_ID":67311,"ELEMENT_SET_NO":999,"REV_AT_EPOCH":1128,"BSTAR":0.0012184435,"MEAN_MOTION_DOT":0.0003347,"MEAN_MOTION_DDOT":0},{"OBJECT_NAME":"VEP","OBJECT_ID":"1994-007B","EPOCH":"2026-03-08T21:07:11.494560","MEAN_MOTION":2.25989754,"ECCENTRICITY":0.72211077,"INCLINATION":29.1357,"RA_OF_ASC_NODE":53.7331,"ARG_OF_PERICENTER":239.4641,"MEAN_ANOMALY":31.4702,"EPHEMERIS_TYPE":0,"CLASSIFICATION_TYPE":"U","NORAD_CAT_ID":22979,"ELEMENT_SET_NO":999,"REV_AT_EPOCH":26403,"BSTAR":0.00014296081,"MEAN_MOTION_DOT":-1.09e-6,"MEAN_MOTION_DDOT":0}]
